{
  "type": "FeatureCollection",
  "features": [
    {
      "type": "Feature",
      "properties": {},
      "geometry": {
        "coordinates": [
          [
            [
              38.002413418252104,
              55.880535673335174
            ],
            [
              38.09534524035723,
              55.85873602276425
            ],
            [
              38.10324779118375,
              55.869253535032584
            ],
            [
              38.06100901190575,
              55.900522708022265
            ],
            [
              38.018038219333675,
              55.89517548310502
            ],
            [
              38.002413418252104,
              55.880535673335174
            ]
          ]
        ],
        "type": "Polygon"
      }
    }
  ]
}