{
  "type": "FeatureCollection",
  "features": [
    {
      "type": "Feature",
      "properties": {},
      "geometry": {
        "coordinates": [
          [
            [
              37.8663103173933,
              55.42559993707283
            ],
            [
              37.91167282141308,
              55.37864516755113
            ],
            [
              37.962248479192965,
              55.387111285315
            ],
            [
              37.904492987972645,
              55.43348331314195
            ],
            [
              37.8663103173933,
              55.42559993707283
            ]
          ]
        ],
        "type": "Polygon"
      }
    }
  ]
}