{
  "type": "FeatureCollection",
  "features": [
    {
      "type": "Feature",
      "properties": {},
      "geometry": {
        "coordinates": [
          [
            [
              37.37745449795406,
              55.97346234042945
            ],
            [
              37.35704265904198,
              55.96160686585
            ],
            [
              37.36743050238138,
              55.956209031169976
            ],
            [
              37.37887420070257,
              55.9537972281438
            ],
            [
              37.38894036512502,
              55.95564457939511
            ],
            [
              37.39847316024168,
              55.959552810534205
            ],
            [
              37.407567713856196,
              55.961314742908144
            ],
            [
              37.4143405151857,
              55.96263626947197
            ],
            [
              37.4237849184928,
              55.964600109739564
            ],
            [
              37.43407486706471,
              55.96526849644363
            ],
            [
              37.443561580242175,
              55.969200681292875
            ],
            [
              37.44974598045954,
              55.97258619261868
            ],
            [
              37.45513656675507,
              55.97675207509556
            ],
            [
              37.45368640238317,
              55.98129331465947
            ],
            [
              37.44468746903951,
              55.983770235061144
            ],
            [
              37.430472266021525,
              55.985112202526636
            ],
            [
              37.40139013243646,
              55.98072927899028
            ],
            [
              37.38822040525443,
              55.978740589989
            ],
            [
              37.37745449795406,
              55.97346234042945
            ]
          ]
        ],
        "type": "Polygon"
      }
    }
  ]
}