{
  "type": "FeatureCollection",
  "features": [
    {
      "type": "Feature",
      "properties": {},
      "geometry": {
        "coordinates": [
          [
            [
              37.23409307099999,
              55.59235866267608
            ],
            [
              37.22815331698337,
              55.58613790233434
            ],
            [
              37.23088910291847,
              55.57730278499619
            ],
            [
              37.279659388228225,
              55.58923166995919
            ],
            [
              37.30105371786516,
              55.595804418329834
            ],
            [
              37.30441488012707,
              55.598599036382836
            ],
            [
              37.30148502537338,
              55.60240579128072
            ],
            [
              37.29538348325812,
              55.604312778994256
            ],
            [
              37.29243369895502,
              55.60757796417363
            ],
            [
              37.28848718769575,
              55.611192814778946
            ],
            [
              37.281357131448175,
              55.61494114984262
            ],
            [
              37.27401203439078,
              55.617105602752275
            ],
            [
              37.2590040910417,
              55.61154861261559
            ],
            [
              37.246891945566006,
              55.603306946615646
            ],
            [
              37.24303861253128,
              55.59815429311459
            ],
            [
              37.23409307099999,
              55.59235866267608
            ]
          ]
        ],
        "type": "Polygon"
      }
    }
  ]
}