{
  "type": "FeatureCollection",
  "features": [
    {
      "type": "Feature",
      "properties": {},
      "geometry": {
        "coordinates": [
          [
            [
              38.172821647173265,
              55.568791242588475
            ],
            [
              38.15427055220832,
              55.57454695496699
            ],
            [
              38.13851361965175,
              55.57850220233948
            ],
            [
              38.11799865844131,
              55.572063987895916
            ],
            [
              38.11574408150355,
              55.5678144105577
            ],
            [
              38.11098826187279,
              55.55936290973929
            ],
            [
              38.1957482723175,
              55.520202927581266
            ],
            [
              38.21130197789543,
              55.5301719722477
            ],
            [
              38.16816412954839,
              55.54589079873176
            ],
            [
              38.172821647173265,
              55.568791242588475
            ]
          ]
        ],
        "type": "Polygon"
      }
    }
  ]
}